start=new Date('2021-09-15T00:00:00.000Z').valueOf();
sats=[{"CLASSIFICATION_TYPE":"U","OBJECT_NAME":"STARLINK-1783","ELEMENT_SET_NO":"999","INCLINATION":"53.0554","FILE":"3115650","LAUNCH_DATE":"2020-10-18","MEAN_ELEMENT_THEORY":"SGP4","PERIOD":"95.592","OBJECT_TYPE":"PAYLOAD","EPOCH":"2021-09-14T15:05:54.142368","NORAD_CAT_ID":"46686","PERIAPSIS":"546.185","CENTER_NAME":"EARTH","MEAN_MOTION_DDOT":"0.0000000000000","REF_FRAME":"TEME","ARG_OF_PERICENTER":"116.0113","TLE_LINE2":"2 46686  53.0554  45.6649 0001479 116.0113 244.1029 15.06401529 50170","RCS_SIZE":"LARGE","REV_AT_EPOCH":"5017","RA_OF_ASC_NODE":"45.6649","DECAY_DATE":null,"MEAN_MOTION":"15.06401529","TLE_LINE1":"1 46686U 20073S   21257.62909887 -.00000290  00000-0 -59483-6 0  9996","BSTAR":"-0.00000059483000","APOAPSIS":"548.233","TIME_SYSTEM":"UTC","EPHEMERIS_TYPE":"0","ECCENTRICITY":"0.00014790","SEMIMAJOR_AXIS":"6925.344","SITE":"AFETR","COUNTRY_CODE":"US","OBJECT_ID":"2020-073S","MEAN_ANOMALY":"244.1029","MEAN_MOTION_DOT":"-0.00000290","GP_ID":"184723859"},{"GP_ID":"184722607","MEAN_MOTION_DOT":"-0.00000320","MEAN_ANOMALY":"245.9361","COUNTRY_CODE":"US","OBJECT_ID":"2020-073T","SITE":"AFETR","SEMIMAJOR_AXIS":"6925.350","EPHEMERIS_TYPE":"0","ECCENTRICITY":"0.00016240","TLE_LINE1":"1 46687U 20073T   21257.61573701 -.00000320  00000-0 -25955-5 0  9998","APOAPSIS":"548.339","BSTAR":"-0.00000259550000","TIME_SYSTEM":"UTC","MEAN_MOTION":"15.06399619","RA_OF_ASC_NODE":"10.7170","DECAY_DATE":null,"REV_AT_EPOCH":"5066","RCS_SIZE":"LARGE","TLE_LINE2":"2 46687  53.0563  10.7170 0001624 114.1798 245.9361 15.06399619 50661","ARG_OF_PERICENTER":"114.1798","REF_FRAME":"TEME","MEAN_MOTION_DDOT":"0.0000000000000","CENTER_NAME":"EARTH","PERIAPSIS":"546.090","NORAD_CAT_ID":"46687","EPOCH":"2021-09-14T14:46:39.677664","OBJECT_TYPE":"PAYLOAD","PERIOD":"95.592","MEAN_ELEMENT_THEORY":"SGP4","LAUNCH_DATE":"2020-10-18","FILE":"3115650","INCLINATION":"53.0563","ELEMENT_SET_NO":"999","OBJECT_NAME":"STARLINK-1784","CLASSIFICATION_TYPE":"U"},{"APOAPSIS":"456.602","TLE_LINE1":"1 46688U 20073U   21257.88713614  .00335417  00000-0  88089-2 0  9997","BSTAR":"0.00880890000000","TIME_SYSTEM":"UTC","EPHEMERIS_TYPE":"0","ECCENTRICITY":"0.00013760","SEMIMAJOR_AXIS":"6833.797","REV_AT_EPOCH":"5025","DECAY_DATE":null,"RA_OF_ASC_NODE":"42.0154","MEAN_MOTION":"15.36772907","MEAN_MOTION_DOT":"0.00335417","GP_ID":"184722857","SITE":"AFETR","COUNTRY_CODE":"US","MEAN_ANOMALY":"317.2057","OBJECT_ID":"2020-073U","LAUNCH_DATE":"2020-10-18","MEAN_ELEMENT_THEORY":"SGP4","OBJECT_TYPE":"PAYLOAD","PERIOD":"93.703","OBJECT_NAME":"STARLINK-1786","CLASSIFICATION_TYPE":"U","INCLINATION":"53.0570","ELEMENT_SET_NO":"999","FILE":"3115650","ARG_OF_PERICENTER":"42.9053","RCS_SIZE":"LARGE","TLE_LINE2":"2 46688  53.0570  42.0154 0001376  42.9053 317.2057 15.36772907 50254","NORAD_CAT_ID":"46688","EPOCH":"2021-09-14T21:17:28.562496","PERIAPSIS":"454.721","CENTER_NAME":"EARTH","REF_FRAME":"TEME","MEAN_MOTION_DDOT":"0.0000000000000"},{"ARG_OF_PERICENTER":"107.9269","RCS_SIZE":"LARGE","TLE_LINE2":"2 46689  53.0562  44.7280 0002281 107.9269 252.1969 15.06397472 51451","PERIAPSIS":"545.642","EPOCH":"2021-09-14T20:08:26.865312","NORAD_CAT_ID":"46689","MEAN_MOTION_DDOT":"0.0000000000000","REF_FRAME":"TEME","CENTER_NAME":"EARTH","LAUNCH_DATE":"2020-10-18","PERIOD":"95.592","OBJECT_TYPE":"PAYLOAD","MEAN_ELEMENT_THEORY":"SGP4","CLASSIFICATION_TYPE":"U","OBJECT_NAME":"STARLINK-1788","FILE":"3115650","ELEMENT_SET_NO":"999","INCLINATION":"53.0562","MEAN_MOTION_DOT":"0.00000237","GP_ID":"184724108","SITE":"AFETR","COUNTRY_CODE":"US","OBJECT_ID":"2020-073V","MEAN_ANOMALY":"252.1969","TLE_LINE1":"1 46689U 20073V   21257.83919983  .00000237  00000-0  34808-4 0  9991","APOAPSIS":"548.801","TIME_SYSTEM":"UTC","BSTAR":"0.00003480800000","SEMIMAJOR_AXIS":"6925.356","EPHEMERIS_TYPE":"0","ECCENTRICITY":"0.00022810","REV_AT_EPOCH":"5145","MEAN_MOTION":"15.06397472","RA_OF_ASC_NODE":"44.7280","DECAY_DATE":null},{"MEAN_MOTION_DOT":"-0.00000307","GP_ID":"184724359","SITE":"AFETR","COUNTRY_CODE":"US","MEAN_ANOMALY":"249.2091","OBJECT_ID":"2020-073W","TIME_SYSTEM":"UTC","TLE_LINE1":"1 46690U 20073W   21257.70697266 -.00000307  00000-0 -17007-5 0  9999","APOAPSIS":"548.187","BSTAR":"-0.00000170070000","ECCENTRICITY":"0.00013810","EPHEMERIS_TYPE":"0","SEMIMAJOR_AXIS":"6925.366","REV_AT_EPOCH":"5053","RA_OF_ASC_NODE":"20.3068","DECAY_DATE":null,"MEAN_MOTION":"15.06394353","ARG_OF_PERICENTER":"110.9046","RCS_SIZE":"LARGE","TLE_LINE2":"2 46690  53.0563  20.3068 0001381 110.9046 249.2091 15.06394353 50531","NORAD_CAT_ID":"46690","EPOCH":"2021-09-14T16:58:02.437824","PERIAPSIS":"546.274","CENTER_NAME":"EARTH","REF_FRAME":"TEME","MEAN_MOTION_DDOT":"0.0000000000000","LAUNCH_DATE":"2020-10-18","MEAN_ELEMENT_THEORY":"SGP4","OBJECT_TYPE":"PAYLOAD","PERIOD":"95.592","OBJECT_NAME":"STARLINK-1789","CLASSIFICATION_TYPE":"U","INCLINATION":"53.0563","ELEMENT_SET_NO":"999","FILE":"3115650"},{"MEAN_ELEMENT_THEORY":"SGP4","PERIOD":"95.592","OBJECT_TYPE":"PAYLOAD","LAUNCH_DATE":"2020-10-18","ELEMENT_SET_NO":"999","INCLINATION":"53.0569","FILE":"3115650","CLASSIFICATION_TYPE":"U","OBJECT_NAME":"STARLINK-1790","TLE_LINE2":"2 46691  53.0569  30.0250 0001267  94.2755 265.8379 15.06396583 50409","RCS_SIZE":"LARGE","ARG_OF_PERICENTER":"94.2755","CENTER_NAME":"EARTH","MEAN_MOTION_DDOT":"0.0000000000000","REF_FRAME":"TEME","EPOCH":"2021-09-14T18:32:15.276192","NORAD_CAT_ID":"46691","PERIAPSIS":"546.347","ECCENTRICITY":"0.00012670","EPHEMERIS_TYPE":"0","SEMIMAJOR_AXIS":"6925.359","APOAPSIS":"548.101","TLE_LINE1":"1 46691U 20073X   21257.77239903 -.00000137  00000-0  96616-5 0  9990","TIME_SYSTEM":"UTC","BSTAR":"0.00000966160000","RA_OF_ASC_NODE":"30.0250","DECAY_DATE":null,"MEAN_MOTION":"15.06396583","REV_AT_EPOCH":"5040","GP_ID":"184723107","MEAN_MOTION_DOT":"-0.00000137","OBJECT_ID":"2020-073X","COUNTRY_CODE":"US","MEAN_ANOMALY":"265.8379","SITE":"AFETR"},{"TLE_LINE2":"2 46692  53.0548  44.7968 0001304 108.4249 251.6882 15.06401896 50207","RCS_SIZE":"LARGE","ARG_OF_PERICENTER":"108.4249","MEAN_MOTION_DDOT":"0.0000000000000","REF_FRAME":"TEME","CENTER_NAME":"EARTH","PERIAPSIS":"546.305","EPOCH":"2021-09-14T19:47:13.238592","NORAD_CAT_ID":"46692","PERIOD":"95.592","OBJECT_TYPE":"PAYLOAD","MEAN_ELEMENT_THEORY":"SGP4","LAUNCH_DATE":"2020-10-18","FILE":"3115650","ELEMENT_SET_NO":"999","INCLINATION":"53.0548","CLASSIFICATION_TYPE":"U","OBJECT_NAME":"STARLINK-1791","GP_ID":"184723357","MEAN_MOTION_DOT":"0.00001545","MEAN_ANOMALY":"251.6882","COUNTRY_CODE":"US","OBJECT_ID":"2020-073Y","SITE":"AFETR","SEMIMAJOR_AXIS":"6925.343","ECCENTRICITY":"0.00013040","EPHEMERIS_TYPE":"0","TLE_LINE1":"1 46692U 20073Y   21257.82445878  .00001545  00000-0  12256-3 0  9996","APOAPSIS":"548.111","TIME_SYSTEM":"UTC","BSTAR":"0.00012256000000","MEAN_MOTION":"15.06401896","RA_OF_ASC_NODE":"44.7968","DECAY_DATE":null,"REV_AT_EPOCH":"5020"},{"MEAN_MOTION_DOT":"-0.00000338","GP_ID":"184723609","SITE":"AFETR","COUNTRY_CODE":"US","MEAN_ANOMALY":"256.9997","OBJECT_ID":"2020-073Z","APOAPSIS":"548.063","TLE_LINE1":"1 46693U 20073Z   21257.70973716 -.00000338  00000-0 -38080-5 0  9997","TIME_SYSTEM":"UTC","BSTAR":"-0.00000380800000","SEMIMAJOR_AXIS":"6925.362","EPHEMERIS_TYPE":"0","ECCENTRICITY":"0.00012080","REV_AT_EPOCH":"5039","MEAN_MOTION":"15.06395743","RA_OF_ASC_NODE":"30.3024","DECAY_DATE":null,"ARG_OF_PERICENTER":"103.1127","TLE_LINE2":"2 46693  53.0562  30.3024 0001208 103.1127 256.9997 15.06395743 50396","RCS_SIZE":"LARGE","PERIAPSIS":"546.390","EPOCH":"2021-09-14T17:02:01.290624","NORAD_CAT_ID":"46693","MEAN_MOTION_DDOT":"0.0000000000000","REF_FRAME":"TEME","CENTER_NAME":"EARTH","LAUNCH_DATE":"2020-10-18","PERIOD":"95.592","OBJECT_TYPE":"PAYLOAD","MEAN_ELEMENT_THEORY":"SGP4","CLASSIFICATION_TYPE":"U","OBJECT_NAME":"STARLINK-1792","FILE":"3115650","ELEMENT_SET_NO":"999","INCLINATION":"53.0562"},{"ARG_OF_PERICENTER":"90.3702","TLE_LINE2":"2 46694  53.0580  10.7967 0007437  90.3702 269.8139 15.06396449 50666","RCS_SIZE":"LARGE","EPOCH":"2021-09-14T14:25:27.349536","NORAD_CAT_ID":"46694","PERIAPSIS":"542.074","CENTER_NAME":"EARTH","MEAN_MOTION_DDOT":"0.0000000000000","REF_FRAME":"TEME","LAUNCH_DATE":"2020-10-18","MEAN_ELEMENT_THEORY":"SGP4","PERIOD":"95.592","OBJECT_TYPE":"PAYLOAD","CLASSIFICATION_TYPE":"U","OBJECT_NAME":"STARLINK-1793","ELEMENT_SET_NO":"999","INCLINATION":"53.0580","FILE":"3115650","MEAN_MOTION_DOT":"-0.00000195","GP_ID":"184723860","SITE":"AFETR","COUNTRY_CODE":"US","OBJECT_ID":"2020-073AA","MEAN_ANOMALY":"269.8139","APOAPSIS":"552.375","TLE_LINE1":"1 46694U 20073AA  21257.60101099 -.00000195  00000-0  59535-5 0  9992","BSTAR":"0.00000595350000","TIME_SYSTEM":"UTC","EPHEMERIS_TYPE":"0","ECCENTRICITY":"0.00074370","SEMIMAJOR_AXIS":"6925.359","REV_AT_EPOCH":"5066","DECAY_DATE":null,"RA_OF_ASC_NODE":"10.7967","MEAN_MOTION":"15.06396449"},{"LAUNCH_DATE":"2020-10-18","OBJECT_TYPE":"PAYLOAD","PERIOD":"90.505","MEAN_ELEMENT_THEORY":"SGP4","OBJECT_NAME":"STARLINK-1794","CLASSIFICATION_TYPE":"U","FILE":"3115650","INCLINATION":"53.0548","ELEMENT_SET_NO":"999","ARG_OF_PERICENTER":"286.9604","TLE_LINE2":"2 46695  53.0548 354.0360 0008598 286.9604  73.0479 15.91076017 50915","RCS_SIZE":"LARGE","PERIAPSIS":"293.531","NORAD_CAT_ID":"46695","EPOCH":"2021-09-14T18:01:35.364000","REF_FRAME":"TEME","MEAN_MOTION_DDOT":"0.0000111650000","CENTER_NAME":"EARTH","TLE_LINE1":"1 46695U 20073AB  21257.75110375  .00014334  11165-4  54789-4 0  9998","TIME_SYSTEM":"UTC","APOAPSIS":"305.014","BSTAR":"0.00005478900000","SEMIMAJOR_AXIS":"6677.408","EPHEMERIS_TYPE":"0","ECCENTRICITY":"0.00085980","REV_AT_EPOCH":"5091","MEAN_MOTION":"15.91076017","DECAY_DATE":null,"RA_OF_ASC_NODE":"354.0360","MEAN_MOTION_DOT":"0.00014334","GP_ID":"184722608","SITE":"AFETR","OBJECT_ID":"2020-073AB","COUNTRY_CODE":"US","MEAN_ANOMALY":"73.0479"}];
